start=new Date('2022-06-22T00:00:00.000Z').valueOf();
sats=[{"TIME_SYSTEM":"UTC","DECAY_DATE":null,"PERIAPSIS":"546.252","APOAPSIS":"548.220","OBJECT_NAME":"STARLINK-1909","BSTAR":"0.00008841700000","COUNTRY_CODE":"US","ARG_OF_PERICENTER":"63.3764","SITE":"AFETR","MEAN_ELEMENT_THEORY":"SGP4","EPHEMERIS_TYPE":"0","REF_FRAME":"TEME","MEAN_MOTION_DOT":"0.00001035","REV_AT_EPOCH":"7656","MEAN_MOTION_DDOT":"0.0000000000000","GP_ID":"206580865","CENTER_NAME":"EARTH","CLASSIFICATION_TYPE":"U","TLE_LINE1":"1 47550U 21009C   22172.83006417  .00001035  00000-0  88417-4 0  9997","OBJECT_ID":"2021-009C","ECCENTRICITY":"0.00014210","FILE":"3499203","LAUNCH_DATE":"2021-02-04","MEAN_MOTION":"15.06392755","TLE_LINE2":"2 47550  53.0548 332.7975 0001421  63.3764 296.7370 15.06392755 76562","ELEMENT_SET_NO":"999","PERIOD":"95.593","SEMIMAJOR_AXIS":"6925.371","NORAD_CAT_ID":"47550","RCS_SIZE":"LARGE","OBJECT_TYPE":"PAYLOAD","RA_OF_ASC_NODE":"332.7975","INCLINATION":"53.0548","EPOCH":"2022-06-21T19:55:17.544288","MEAN_ANOMALY":"296.7370"},{"FILE":"3499203","LAUNCH_DATE":"2021-02-04","OBJECT_ID":"2021-009D","ECCENTRICITY":"0.00016120","TLE_LINE1":"1 47551U 21009D   22172.89088017  .00003110  00000-0  22762-3 0  9996","CLASSIFICATION_TYPE":"U","EPOCH":"2022-06-21T21:22:52.046688","MEAN_ANOMALY":"300.8027","SEMIMAJOR_AXIS":"6925.375","NORAD_CAT_ID":"47551","RCS_SIZE":"LARGE","OBJECT_TYPE":"PAYLOAD","INCLINATION":"53.0559","RA_OF_ASC_NODE":"352.5387","ELEMENT_SET_NO":"999","PERIOD":"95.593","MEAN_MOTION":"15.06391333","TLE_LINE2":"2 47551  53.0559 352.5387 0001612  59.3121 300.8027 15.06391333 76293","PERIAPSIS":"546.124","DECAY_DATE":null,"APOAPSIS":"548.356","OBJECT_NAME":"STARLINK-1938","BSTAR":"0.00022762000000","TIME_SYSTEM":"UTC","GP_ID":"206580619","CENTER_NAME":"EARTH","REF_FRAME":"TEME","MEAN_MOTION_DOT":"0.00003110","REV_AT_EPOCH":"7629","MEAN_MOTION_DDOT":"0.0000000000000","MEAN_ELEMENT_THEORY":"SGP4","EPHEMERIS_TYPE":"0","COUNTRY_CODE":"US","ARG_OF_PERICENTER":"59.3121","SITE":"AFETR"},{"TIME_SYSTEM":"UTC","PERIAPSIS":"546.177","DECAY_DATE":null,"APOAPSIS":"548.261","OBJECT_NAME":"STARLINK-1940","BSTAR":"0.00012800000000","REF_FRAME":"TEME","MEAN_MOTION_DOT":"0.00001625","REV_AT_EPOCH":"7641","MEAN_MOTION_DDOT":"0.0000000000000","GP_ID":"206581862","CENTER_NAME":"EARTH","COUNTRY_CODE":"US","ARG_OF_PERICENTER":"67.1295","SITE":"AFETR","MEAN_ELEMENT_THEORY":"SGP4","EPHEMERIS_TYPE":"0","ECCENTRICITY":"0.00015050","OBJECT_ID":"2021-009E","FILE":"3499203","LAUNCH_DATE":"2021-02-04","CLASSIFICATION_TYPE":"U","TLE_LINE1":"1 47552U 21009E   22172.76279097  .00001625  00000-0  12800-3 0  9994","NORAD_CAT_ID":"47552","SEMIMAJOR_AXIS":"6925.354","OBJECT_TYPE":"PAYLOAD","RCS_SIZE":"LARGE","RA_OF_ASC_NODE":"343.1088","INCLINATION":"53.0565","EPOCH":"2022-06-21T18:18:25.139808","MEAN_ANOMALY":"292.9853","TLE_LINE2":"2 47552  53.0565 343.1088 0001505  67.1295 292.9853 15.06398221 76410","MEAN_MOTION":"15.06398221","ELEMENT_SET_NO":"999","PERIOD":"95.592"},{"TIME_SYSTEM":"UTC","DECAY_DATE":null,"PERIAPSIS":"546.224","APOAPSIS":"548.190","BSTAR":"0.00009491100000","OBJECT_NAME":"STARLINK-1953","REF_FRAME":"TEME","MEAN_MOTION_DDOT":"0.0000000000000","MEAN_MOTION_DOT":"0.00001133","REV_AT_EPOCH":"7615","GP_ID":"206581611","CENTER_NAME":"EARTH","ARG_OF_PERICENTER":"70.7360","COUNTRY_CODE":"US","SITE":"AFETR","EPHEMERIS_TYPE":"0","MEAN_ELEMENT_THEORY":"SGP4","OBJECT_ID":"2021-009G","ECCENTRICITY":"0.00014190","FILE":"3499203","LAUNCH_DATE":"2021-02-04","CLASSIFICATION_TYPE":"U","TLE_LINE1":"1 47554U 21009G   22172.90100903  .00001133  00000-0  94911-4 0  9999","NORAD_CAT_ID":"47554","SEMIMAJOR_AXIS":"6925.342","RA_OF_ASC_NODE":"2.4831","INCLINATION":"53.0552","RCS_SIZE":"LARGE","OBJECT_TYPE":"PAYLOAD","MEAN_ANOMALY":"289.3782","EPOCH":"2022-06-21T21:37:27.180192","TLE_LINE2":"2 47554  53.0552   2.4831 0001419  70.7360 289.3782 15.06402132 76155","MEAN_MOTION":"15.06402132","ELEMENT_SET_NO":"999","PERIOD":"95.592"},{"LAUNCH_DATE":"2021-02-04","FILE":"3499203","OBJECT_ID":"2021-009H","ECCENTRICITY":"0.00013980","TLE_LINE1":"1 47555U 21009H   22172.87613687  .00000930  00000-0  81360-4 0  9992","CLASSIFICATION_TYPE":"U","MEAN_ANOMALY":"290.8120","EPOCH":"2022-06-21T21:01:38.225568","RA_OF_ASC_NODE":"352.5843","INCLINATION":"53.0550","RCS_SIZE":"LARGE","OBJECT_TYPE":"PAYLOAD","SEMIMAJOR_AXIS":"6925.369","NORAD_CAT_ID":"47555","PERIOD":"95.593","ELEMENT_SET_NO":"999","MEAN_MOTION":"15.06393417","TLE_LINE2":"2 47555  53.0550 352.5843 0001398  69.3018 290.8120 15.06393417 76299","BSTAR":"0.00008136000000","OBJECT_NAME":"STARLINK-1954","PERIAPSIS":"546.266","DECAY_DATE":null,"APOAPSIS":"548.202","TIME_SYSTEM":"UTC","CENTER_NAME":"EARTH","GP_ID":"206580367","MEAN_MOTION_DDOT":"0.0000000000000","MEAN_MOTION_DOT":"0.00000930","REV_AT_EPOCH":"7629","REF_FRAME":"TEME","EPHEMERIS_TYPE":"0","MEAN_ELEMENT_THEORY":"SGP4","SITE":"AFETR","ARG_OF_PERICENTER":"69.3018","COUNTRY_CODE":"US"},{"OBJECT_NAME":"STARLINK-1955","BSTAR":"0.00127410000000","PERIAPSIS":"546.620","DECAY_DATE":null,"APOAPSIS":"548.318","TIME_SYSTEM":"UTC","CENTER_NAME":"EARTH","GP_ID":"206581118","REV_AT_EPOCH":"7599","MEAN_MOTION_DOT":"0.00018704","MEAN_MOTION_DDOT":"0.0000000000000","REF_FRAME":"TEME","MEAN_ELEMENT_THEORY":"SGP4","EPHEMERIS_TYPE":"0","SITE":"AFETR","COUNTRY_CODE":"US","ARG_OF_PERICENTER":"81.3398","LAUNCH_DATE":"2021-02-04","FILE":"3499203","ECCENTRICITY":"0.00012260","OBJECT_ID":"2021-009J","TLE_LINE1":"1 47556U 21009J   22172.77848583  .00018704  00000-0  12741-2 0  9990","CLASSIFICATION_TYPE":"U","EPOCH":"2022-06-21T18:41:01.175712","MEAN_ANOMALY":"278.7730","OBJECT_TYPE":"PAYLOAD","RCS_SIZE":"LARGE","RA_OF_ASC_NODE":"13.0358","INCLINATION":"53.0570","NORAD_CAT_ID":"47556","SEMIMAJOR_AXIS":"6925.604","PERIOD":"95.597","ELEMENT_SET_NO":"999","TLE_LINE2":"2 47556  53.0570  13.0358 0001226  81.3398 278.7730 15.06316583 75994","MEAN_MOTION":"15.06316583"},{"TLE_LINE1":"1 47557U 21009K   22172.87429364  .00000281  00000-0  37748-4 0  9991","CLASSIFICATION_TYPE":"U","LAUNCH_DATE":"2021-02-04","FILE":"3499203","ECCENTRICITY":"0.00014880","OBJECT_ID":"2021-009K","PERIOD":"95.592","ELEMENT_SET_NO":"999","MEAN_MOTION":"15.06399310","TLE_LINE2":"2 47557  53.0555  12.5940 0001488  61.1452 298.9686 15.06399310 76013","EPOCH":"2022-06-21T20:58:58.970496","MEAN_ANOMALY":"298.9686","OBJECT_TYPE":"PAYLOAD","RCS_SIZE":"LARGE","RA_OF_ASC_NODE":"12.5940","INCLINATION":"53.0555","SEMIMAJOR_AXIS":"6925.351","NORAD_CAT_ID":"47557","OBJECT_NAME":"STARLINK-1956","BSTAR":"0.00003774800000","APOAPSIS":"548.246","DECAY_DATE":null,"PERIAPSIS":"546.185","TIME_SYSTEM":"UTC","MEAN_ELEMENT_THEORY":"SGP4","EPHEMERIS_TYPE":"0","SITE":"AFETR","COUNTRY_CODE":"US","ARG_OF_PERICENTER":"61.1452","CENTER_NAME":"EARTH","GP_ID":"206581363","MEAN_MOTION_DOT":"0.00000281","REV_AT_EPOCH":"7601","MEAN_MOTION_DDOT":"0.0000000000000","REF_FRAME":"TEME"},{"TIME_SYSTEM":"UTC","BSTAR":"-0.00029131000000","OBJECT_NAME":"STARLINK-1957","PERIAPSIS":"546.012","DECAY_DATE":null,"APOAPSIS":"548.313","SITE":"AFETR","ARG_OF_PERICENTER":"50.0210","COUNTRY_CODE":"US","EPHEMERIS_TYPE":"0","MEAN_ELEMENT_THEORY":"SGP4","MEAN_MOTION_DDOT":"0.0000000000000","REV_AT_EPOCH":"7642","MEAN_MOTION_DOT":"-0.00004620","REF_FRAME":"TEME","CENTER_NAME":"EARTH","GP_ID":"206582111","CLASSIFICATION_TYPE":"U","TLE_LINE1":"1 47558U 21009L   22172.85493788 -.00004620  00000-0 -29131-3 0  9990","ECCENTRICITY":"0.00016610","OBJECT_ID":"2021-009L","LAUNCH_DATE":"2021-02-04","FILE":"3499203","TLE_LINE2":"2 47558  53.0568 342.6945 0001661  50.0210 310.0925 15.06416688 76427","MEAN_MOTION":"15.06416688","PERIOD":"95.591","ELEMENT_SET_NO":"999","RA_OF_ASC_NODE":"342.6945","INCLINATION":"53.0568","RCS_SIZE":"LARGE","OBJECT_TYPE":"PAYLOAD","SEMIMAJOR_AXIS":"6925.297","NORAD_CAT_ID":"47558","MEAN_ANOMALY":"310.0925","EPOCH":"2022-06-21T20:31:06.632832"},{"LAUNCH_DATE":"2021-02-04","FILE":"3499203","ECCENTRICITY":"0.00015140","OBJECT_ID":"2021-009M","TLE_LINE1":"1 47559U 21009M   22172.81900852  .00000510  00000-0  53133-4 0  9994","CLASSIFICATION_TYPE":"U","MEAN_ANOMALY":"292.8740","EPOCH":"2022-06-21T19:39:22.336128","INCLINATION":"53.0574","RA_OF_ASC_NODE":"332.8529","OBJECT_TYPE":"PAYLOAD","RCS_SIZE":"LARGE","SEMIMAJOR_AXIS":"6925.381","NORAD_CAT_ID":"47559","PERIOD":"95.593","ELEMENT_SET_NO":"999","MEAN_MOTION":"15.06389538","TLE_LINE2":"2 47559  53.0574 332.8529 0001514  67.2409 292.8740 15.06389538 76561","BSTAR":"0.00005313300000","OBJECT_NAME":"STARLINK-1958","DECAY_DATE":null,"APOAPSIS":"548.294","PERIAPSIS":"546.197","TIME_SYSTEM":"UTC","CENTER_NAME":"EARTH","GP_ID":"206580866","MEAN_MOTION_DDOT":"0.0000000000000","MEAN_MOTION_DOT":"0.00000510","REV_AT_EPOCH":"7656","REF_FRAME":"TEME","EPHEMERIS_TYPE":"0","MEAN_ELEMENT_THEORY":"SGP4","SITE":"AFETR","ARG_OF_PERICENTER":"67.2409","COUNTRY_CODE":"US"},{"TLE_LINE2":"2 47560  53.0538 332.5772 0001511  71.7891 288.3263 15.06390342 76578","MEAN_MOTION":"15.06390342","ELEMENT_SET_NO":"999","PERIOD":"95.593","NORAD_CAT_ID":"47560","SEMIMAJOR_AXIS":"6925.378","OBJECT_TYPE":"PAYLOAD","RCS_SIZE":"LARGE","RA_OF_ASC_NODE":"332.5772","INCLINATION":"53.0538","EPOCH":"2022-06-21T21:02:56.065056","MEAN_ANOMALY":"288.3263","CLASSIFICATION_TYPE":"U","TLE_LINE1":"1 47560U 21009N   22172.87703779 -.00000136  00000-0  97431-5 0  9996","ECCENTRICITY":"0.00015110","OBJECT_ID":"2021-009N","FILE":"3499203","LAUNCH_DATE":"2021-02-04","COUNTRY_CODE":"US","ARG_OF_PERICENTER":"71.7891","SITE":"AFETR","MEAN_ELEMENT_THEORY":"SGP4","EPHEMERIS_TYPE":"0","REF_FRAME":"TEME","REV_AT_EPOCH":"7657","MEAN_MOTION_DOT":"-0.00000136","MEAN_MOTION_DDOT":"0.0000000000000","GP_ID":"206580620","CENTER_NAME":"EARTH","TIME_SYSTEM":"UTC","PERIAPSIS":"546.197","DECAY_DATE":null,"APOAPSIS":"548.290","OBJECT_NAME":"STARLINK-1959","BSTAR":"0.00000974310000"}];
